satname,norad_id,inclination_deg,eccentricity,mean_motion_rev_per_day,perigee_km,apogee_km,l1,l2
STARLINK-1297,45395,53.0537,3.2e-05,15.24902477,490.8584772841368,491.2981070628357,1 45395U 20019AM  26014.66668981  .00055033  00000+0  21803-2 0  9992,2 45395  53.0537  28.6195 0000320 205.1024 148.9333 15.24902477  5840
STARLINK-1307,45397,53.0571,0.0001407,15.28300834,479.92644282659967,481.8565734487893,1 45397U 20019AP  26014.66668981  .00009540  00000+0  35360-3 0  9990,2 45397  53.0571  28.3133 0001407  77.1265 115.2423 15.28300834  5749
STARLINK-1255,45399,53.0483,0.0005928,15.42652665,434.2432213658867,442.3247700984266,1 45399U 20019AR  26014.34814216  .00011076  00000+0  25925-3 0  9994,2 45399  53.0483   2.2590 0005928  56.0851 304.0717 15.42652665322025
STARLINK-1260,45404,53.0557,0.000138,15.06409265,546.2274680108376,548.1388563756018,1 45404U 20019AW  26014.44515577  .00001003  00000+0  86215-4 0  9999,2 45404  53.0557  20.1306 0001380  88.7929 271.3219 15.06409265321684
STARLINK-1263,45405,53.0551,0.0001239,15.06458164,546.1752707909773,547.8913279911658,1 45405U 20019AX  26014.43035757  .00008822  00000+0  60944-3 0  9992,2 45405  53.0551  20.1973 0001239 111.1919 248.9202 15.06458164321686
STARLINK-1265,45406,53.0556,0.0001342,15.0639319,546.3030451086233,548.1618142635507,1 45406U 20019AY  26014.30510275  .00002213  00000+0  16743-3 0  9998,2 45406  53.0556  20.7610 0001342  89.1000 271.0143 15.06393190321662
STARLINK-1278,45408,53.05,0.0004144,15.44420459,430.25890221018744,435.9040400790718,1 45408U 20019BA  26014.43336564  .00024560  00000+0  53013-3 0  9991,2 45408  53.0500  30.8391 0004144 326.2866  33.7876 15.44420459321543
STARLINK-1296,45412,53.0761,0.0001878,15.11771496,529.4999630599168,532.0949588434496,1 45412U 20019BE  26014.66668981  .00003219  00000+0  20362-3 0  9991,2 45412  53.0761  19.0557 0001878  89.3558  97.2296 15.11771496  5742
STARLINK-1298,45413,53.0434,0.0007966,15.71710564,348.6451486302767,359.37080200495257,1 45413U 20019BF  26014.66668981  .00157769  00000+0  11778-2 0  9992,2 45413  53.0434 326.2170 0007966 102.1698  91.9699 15.71710564  6011
STARLINK-1309,45414,53.0559,0.0001641,15.06397105,546.0839795561524,548.356881864911,1 45414U 20019BG  26014.38986858 -.00000014  00000+0  17993-4 0  9996,2 45414  53.0559  20.3816 0001641  66.5780 293.5381 15.06397105321667
STARLINK-1316,45415,53.0555,0.0001396,15.06395578,546.2583302138828,548.1918913152076,1 45415U 20019BH  26014.48202414  .00001581  00000+0  12504-3 0  9998,2 45415  53.0555  19.9654 0001396  89.2957 270.8192 15.06395578321719
STARLINK-1318,45416,53.0464,0.0005221,15.77947294,332.7517855574097,339.7629561594604,1 45416U 20019BJ  26014.66668981  .00145277  00000+0  82973-3 0  9992,2 45416  53.0464 313.8869 0005221 103.6202 277.1343 15.77947294  5924
STARLINK-1286,45417,53.051,0.0002284,15.4471203,430.66885990906667,433.77983297211995,1 45417U 20019BK  26014.66668981 -.00015877  00000+0 -32638-3 0  9990,2 45417  53.0510  29.4198 0002284 359.5372  71.4905 15.44712030  5941
STARLINK-1308,45419,53.0559,0.0002323,15.27341612,482.16898894206315,485.35702768592455,1 45419U 20019BM  26014.66668981  .01902260  00000+0  63594-1 0  9995,2 45419  53.0559  48.3791 0002323  73.7585  54.2936 15.27341612  5814
STARLINK-1329,45531,53.0562,0.0005788,15.45122706,427.07641005567893,434.9586873612643,1 45531U 20025A   26014.30360431  .00030040  00000+0  63060-3 0  9994,2 45531  53.0562 342.5073 0005788  58.0746 302.0822 15.45122706317015
STARLINK-1338,45532,53.0546,0.0003546,15.43966651,432.0003256654845,436.83178829349526,1 45532U 20025B   26014.57931623  .00054753  00000+0  11844-2 0  9990,2 45532  53.0546 344.0848 0003546  85.4626 274.6784 15.43966651317010
STARLINK-1350,45535,53.0728,0.000224,15.3455503,460.71025216154976,463.7747421762806,1 45535U 20025E   26013.78497694  .00007581  00000+0  23415-3 0  9995,2 45535  53.0728 290.6936 0002240 105.5661 254.5588 15.34555030317724
STARLINK-1362,45538,53.0551,0.0001516,15.06394736,546.1778060998895,548.2775766743171,1 45538U 20025H   26014.32899666 -.00000365  00000+0 -55750-5 0  9998,2 45538  53.0551 350.3709 0001516  89.9797 270.1365 15.06394736316902
STARLINK-1368,45540,53.0549,0.0001431,15.06400465,546.2191156059152,548.2011499553173,1 45540U 20025K   26014.33365928  .00001139  00000+0  95331-4 0  9997,2 45540  53.0549 350.6315 0001431  85.6817 274.4336 15.06400465316890
STARLINK-1371,45542,53.0539,0.0001852,15.39197393,447.21713550749155,449.7457149721995,1 45542U 20025M   26014.21279485  .00068298  00000+0  17257-2 0  9996,2 45542  53.0539 348.1003 0001852  82.6448 277.4766 15.39197393316924
STARLINK-1372,45543,53.055,0.000133,15.0639852,546.2950219673394,548.1371658903245,1 45543U 20025N   26014.34103878  .00001757  00000+0  13682-3 0  9999,2 45543  53.0550 350.5982 0001330  87.5685 272.5456 15.06398520315996
STARLINK-1373,45544,53.0548,0.000203,15.40437045,443.43343655969966,446.2035564912885,1 45544U 20025P   26014.66668981  .00055085  00000+0  13405-2 0  9991,2 45544  53.0548 346.4338 0002030  85.3189  87.7810 15.40437045  5806
STARLINK-1294,45551,53.0399,0.0003681,15.76362391,338.28390707421386,343.2303569341948,1 45551U 20025W   26014.03963795  .00090490  00000+0  55975-3 0  9999,2 45551  53.0399 252.6089 0003681 194.9472 165.1439 15.76362391318258
STARLINK-1325,45554,53.0411,0.0008186,15.94455453,284.3737409683872,295.2905400452246,1 45554U 20025Z   26014.66668981  .00262457  37807-4  68480-3 0  9999,2 45554  53.0411 237.4914 0008186 163.9147 246.3515 15.94455453  5908
STARLINK-1327,45555,53.0543,0.0002699,15.43496693,433.9597456907486,437.6379082501471,1 45555U 20025AA  26014.50166962  .00064365  00000+0  14113-2 0  9996,2 45555  53.0543 326.0529 0002699  96.5540 263.5772 15.43496693317258
STARLINK-1356,45564,53.0538,0.0002862,15.19303116,505.9747149487539,509.9163085784867,1 45564U 20025AK  26014.66668981  .00110579  00000+0  51103-2 0  9990,2 45564  53.0538 328.8645 0002862  73.3924  64.8132 15.19303116  5742
STARLINK-1357,45565,53.0597,0.0005722,15.45201683,426.88946554955965,434.6815964940606,1 45565U 20025AL  26013.51232604  .00012832  00000+0  27436-3 0  9999,2 45565  53.0597 302.6520 0005722  87.2612 272.9049 15.45201683317500
STARLINK-1361,45567,53.055,0.0001097,15.12552986,527.6598497938921,529.175147850935,1 45567U 20025AN  26014.46738739  .00178311  00000+0  98770-2 0  9999,2 45567  53.0550 329.8318 0001097 114.2071 245.9036 15.12552986317200
STARLINK-1363,45568,53.0502,0.0008715,15.54743431,396.9888738715199,408.8082188288072,1 45568U 20025AP  26014.23085005  .00079304  00000+0  11666-2 0  9997,2 45568  53.0502 306.5367 0008715  42.7831 317.3856 15.54743431317507
STARLINK-1366,45569,53.0516,0.001233,15.5444784,395.396088701651,412.1202421796279,1 45569U 20025AQ  26014.03827168  .00073235  00000+0  10887-2 0  9991,2 45569  53.0516 308.0703 0012330  66.1057 294.1244 15.54447840317465
STARLINK-1376,45570,53.1463,9.44e-05,15.26623026,485.2681506412591,486.5640838697982,1 45570U 20025AR  26014.66668981  .01523506  00000+0  52340-1 0  9999,2 45570  53.1463 328.3986 0000944 103.1858 221.6711 15.26623026  5803
STARLINK-1320,45572,53.0535,0.0006816,15.55902819,394.90985755334714,404.149172546664,1 45572U 20025AT  26014.63861053  .00030686  00000+0  43974-3 0  9999,2 45572  53.0535 250.0808 0006816 145.1617 214.9841 15.55902819318359
STARLINK-1321,45573,53.055,0.0002594,15.39867149,444.73150586009433,448.272128478442,1 45573U 20025AU  26014.24699611  .00051171  00000+0  12702-2 0  9992,2 45573  53.0550 317.2682 0002594  96.2852 263.8447 15.39867149317058
STARLINK-1328,45576,53.0325,0.0005425,16.38368693,166.59316493773713,173.69805156769053,1 45576U 20025AX  26014.87345267  .06770994  12307-4  59766-3 0  9996,2 45576  53.0325 250.3447 0005425 263.1160  96.9268 16.38368693318350
STARLINK-1331,45578,53.0547,7.71e-05,15.11761845,530.2941839645136,531.3595461925088,1 45578U 20025AZ  26014.66668981  .00072820  00000+0  41949-2 0  9998,2 45578  53.0547 319.1020 0000771  86.9264  42.9846 15.11761845  5840
STARLINK-1333,45580,53.1293,0.0001154,15.24198695,492.3997011615793,493.9856040454006,1 45580U 20025BB  26014.66668981  .00107653  00000+0  43117-2 0  9993,2 45580  53.1293 328.6131 0001154  97.8049 267.4877 15.24198695  5847
STARLINK-1335,45581,53.0537,0.0001509,15.06390204,546.1965418021573,548.2866210580323,1 45581U 20025BC  26014.25902314  .00000981  00000+0  84764-4 0  9991,2 45581  53.0537 320.9669 0001509  90.6777 269.4385 15.06390204317305
STARLINK-1337,45582,53.0573,0.0001784,15.12136604,528.4529445731687,530.917655569835,1 45582U 20025BD  26014.26461659  .00009951  00000+0  58703-3 0  9994,2 45582  53.0573 320.7707 0001784  92.4722 267.6474 15.12136604317300
STARLINK-1347,45586,53.0521,0.0006249,15.43938142,430.2427029743485,438.7571365966978,1 45586U 20025BH  26014.14565201  .00012677  00000+0  28290-3 0  9990,2 45586  53.0521 290.6473 0006249  99.0329 261.1384 15.43938142317714
STARLINK-1364,45589,53.0556,0.0001376,15.13360509,525.0104035821923,526.9104111887036,1 45589U 20025BL  26014.26432929  .00388048  00000+0  20385-1 0  9999,2 45589  53.0556 320.7300 0001376  69.0944 291.0196 15.13360509317306
STARLINK-1365,45590,53.0564,4.06e-05,15.18562914,509.9033465298553,510.4626781148554,1 45590U 20025BM  26014.66668981  .00074411  00000+0  35358-2 0  9997,2 45590  53.0564 348.8781 0000406 210.7587 108.9669 15.18562914  5812
STARLINK-1443,45660,53.0536,0.0001385,15.06391828,546.2774398103584,548.1957682986822,1 45660U 20035D   26014.21939948 -.00000819  00000+0 -36093-4 0  9993,2 45660  53.0536 311.1448 0001385  91.9837 268.1311 15.06391828310527
STARLINK-1446,45663,53.0244,0.0005894,15.40276627,441.27049431445266,449.3139526831128,1 45663U 20035G   26014.09451814  .00010525  00000+0  26689-3 0  9995,2 45663  53.0244 258.2089 0005894 101.9751 258.1913 15.40276627311259
